[{"OBJECT_NAME":"STARLINK-1971","OBJECT_ID":"2021-009AA","EPOCH":"2025-11-02T12:00:02.000160","MEAN_MOTION":15.28978453,"ECCENTRICITY":0.0001115,"INCLINATION":53.0561,"RA_OF_ASC_NODE":221.5455,"ARG_OF_PERICENTER":70.3037,"MEAN_ANOMALY":215.123,"EPHEMERIS_TYPE":0,"CLASSIFICATION_TYPE":"U","NORAD_CAT_ID":47572,"ELEMENT_SET_NO":999,"REV_AT_EPOCH":578,"BSTAR":0.0536,"MEAN_MOTION_DOT":0.01693067,"MEAN_MOTION_DDOT":0},{"OBJECT_NAME":"STARLINK-1975","OBJECT_ID":"2021-009AB","EPOCH":"2025-11-02T10:53:52.568160","MEAN_MOTION":15.37854453,"ECCENTRICITY":0.0011259,"INCLINATION":53.0646,"RA_OF_ASC_NODE":204.6781,"ARG_OF_PERICENTER":84.2774,"MEAN_ANOMALY":275.9512,"EPHEMERIS_TYPE":0,"CLASSIFICATION_TYPE":"U","NORAD_CAT_ID":47573,"ELEMENT_SET_NO":999,"REV_AT_EPOCH":26201,"BSTAR":0.0028747,"MEAN_MOTION_DOT":0.00109937,"MEAN_MOTION_DDOT":0},{"OBJECT_NAME":"STARLINK-1978","OBJECT_ID":"2021-009AE","EPOCH":"2025-11-02T12:00:02.000160","MEAN_MOTION":15.53667101,"ECCENTRICITY":0.0011746,"INCLINATION":53.0488,"RA_OF_ASC_NODE":176.0158,"ARG_OF_PERICENTER":112.2271,"MEAN_ANOMALY":289.6727,"EPHEMERIS_TYPE":0,"CLASSIFICATION_TYPE":"U","NORAD_CAT_ID":47576,"ELEMENT_SET_NO":999,"REV_AT_EPOCH":589,"BSTAR":0.0024374,"MEAN_MOTION_DOT":0.00161656,"MEAN_MOTION_DDOT":0},{"OBJECT_NAME":"STARLINK-1979","OBJECT_ID":"2021-009AF","EPOCH":"2025-11-02T12:00:02.000160","MEAN_MOTION":15.54789912,"ECCENTRICITY":0.0003643,"INCLINATION":53.0514,"RA_OF_ASC_NODE":212.1113,"ARG_OF_PERICENTER":165.1621,"MEAN_ANOMALY":340.4577,"EPHEMERIS_TYPE":0,"CLASSIFICATION_TYPE":"U","NORAD_CAT_ID":47577,"ELEMENT_SET_NO":999,"REV_AT_EPOCH":588,"BSTAR":0.0016012,"MEAN_MOTION_DOT":0.00109491,"MEAN_MOTION_DDOT":0},{"OBJECT_NAME":"STARLINK-1986","OBJECT_ID":"2021-009AL","EPOCH":"2025-11-02T12:00:02.000160","MEAN_MOTION":15.54321368,"ECCENTRICITY":0.0001612,"INCLINATION":53.0449,"RA_OF_ASC_NODE":200.8362,"ARG_OF_PERICENTER":131.6355,"MEAN_ANOMALY":218.9808,"EPHEMERIS_TYPE":0,"CLASSIFICATION_TYPE":"U","NORAD_CAT_ID":47582,"ELEMENT_SET_NO":999,"REV_AT_EPOCH":588,"BSTAR":0.0014529,"MEAN_MOTION_DOT":0.00097453,"MEAN_MOTION_DDOT":0},{"OBJECT_NAME":"STARLINK-1991","OBJECT_ID":"2021-009AR","EPOCH":"2025-11-02T12:00:02.000160","MEAN_MOTION":15.19351296,"ECCENTRICITY":0.0002064,"INCLINATION":53.054,"RA_OF_ASC_NODE":221.972,"ARG_OF_PERICENTER":87.91,"MEAN_ANOMALY":321.0508,"EPHEMERIS_TYPE":0,"CLASSIFICATION_TYPE":"U","NORAD_CAT_ID":47587,"ELEMENT_SET_NO":999,"REV_AT_EPOCH":578,"BSTAR":0.0021725,"MEAN_MOTION_DOT":0.00046475,"MEAN_MOTION_DDOT":0},{"OBJECT_NAME":"STARLINK-1993","OBJECT_ID":"2021-009AS","EPOCH":"2025-11-02T12:00:02.000160","MEAN_MOTION":15.26989366,"ECCENTRICITY":9.57e-5,"INCLINATION":53.0548,"RA_OF_ASC_NODE":231.6815,"ARG_OF_PERICENTER":92.5353,"MEAN_ANOMALY":149.8996,"EPHEMERIS_TYPE":0,"CLASSIFICATION_TYPE":"U","NORAD_CAT_ID":47588,"ELEMENT_SET_NO":999,"REV_AT_EPOCH":572,"BSTAR":0.054117,"MEAN_MOTION_DOT":0.01600346,"MEAN_MOTION_DDOT":0},{"OBJECT_NAME":"STARLINK-1994","OBJECT_ID":"2021-009AT","EPOCH":"2025-11-02T02:18:46.355040","MEAN_MOTION":15.06386871,"ECCENTRICITY":0.00016373,"INCLINATION":53.0547,"RA_OF_ASC_NODE":234.4099,"ARG_OF_PERICENTER":83.5036,"MEAN_ANOMALY":276.614,"EPHEMERIS_TYPE":0,"CLASSIFICATION_TYPE":"U","NORAD_CAT_ID":47589,"ELEMENT_SET_NO":999,"REV_AT_EPOCH":26156,"BSTAR":0.00032895971,"MEAN_MOTION_DOT":4.62e-5,"MEAN_MOTION_DDOT":0},{"OBJECT_NAME":"STARLINK-1995","OBJECT_ID":"2021-009AU","EPOCH":"2025-11-02T03:41:01.258656","MEAN_MOTION":15.06399106,"ECCENTRICITY":0.00015504,"INCLINATION":53.0542,"RA_OF_ASC_NODE":254.1485,"ARG_OF_PERICENTER":98.6214,"MEAN_ANOMALY":261.4951,"EPHEMERIS_TYPE":0,"CLASSIFICATION_TYPE":"U","NORAD_CAT_ID":47590,"ELEMENT_SET_NO":999,"REV_AT_EPOCH":26129,"BSTAR":0.00016260126,"MEAN_MOTION_DOT":2.141e-5,"MEAN_MOTION_DDOT":0},{"OBJECT_NAME":"STARLINK-1997","OBJECT_ID":"2021-009AW","EPOCH":"2025-11-02T12:00:02.000160","MEAN_MOTION":15.30519688,"ECCENTRICITY":0.0001232,"INCLINATION":53.0577,"RA_OF_ASC_NODE":251.4341,"ARG_OF_PERICENTER":88.3367,"MEAN_ANOMALY":29.6758,"EPHEMERIS_TYPE":0,"CLASSIFICATION_TYPE":"U","NORAD_CAT_ID":47592,"ELEMENT_SET_NO":999,"REV_AT_EPOCH":568,"BSTAR":0.029758,"MEAN_MOTION_DOT":0.00964042,"MEAN_MOTION_DDOT":0},{"OBJECT_NAME":"STARLINK-2001","OBJECT_ID":"2021-009BA","EPOCH":"2025-11-02T04:23:28.373856","MEAN_MOTION":15.06395804,"ECCENTRICITY":0.0001458,"INCLINATION":53.0547,"RA_OF_ASC_NODE":254.018,"ARG_OF_PERICENTER":90.3648,"MEAN_ANOMALY":269.7508,"EPHEMERIS_TYPE":0,"CLASSIFICATION_TYPE":"U","NORAD_CAT_ID":47596,"ELEMENT_SET_NO":999,"REV_AT_EPOCH":26129,"BSTAR":0.00017123428,"MEAN_MOTION_DOT":2.27e-5,"MEAN_MOTION_DDOT":0},{"OBJECT_NAME":"STARLINK-2021","OBJECT_ID":"2021-009BJ","EPOCH":"2025-11-02T12:00:02.000160","MEAN_MOTION":15.29896973,"ECCENTRICITY":0.0001589,"INCLINATION":53.0589,"RA_OF_ASC_NODE":221.5707,"ARG_OF_PERICENTER":102.8384,"MEAN_ANOMALY":211.5472,"EPHEMERIS_TYPE":0,"CLASSIFICATION_TYPE":"U","NORAD_CAT_ID":47604,"ELEMENT_SET_NO":999,"REV_AT_EPOCH":578,"BSTAR":7.1246e-5,"MEAN_MOTION_DOT":1.733e-5,"MEAN_MOTION_DDOT":0},{"OBJECT_NAME":"STARLINK-2024","OBJECT_ID":"2021-009BL","EPOCH":"2025-11-01T23:52:19.917408","MEAN_MOTION":15.46445395,"ECCENTRICITY":0.00083482,"INCLINATION":53.0485,"RA_OF_ASC_NODE":200.0264,"ARG_OF_PERICENTER":57.7695,"MEAN_ANOMALY":302.412,"EPHEMERIS_TYPE":0,"CLASSIFICATION_TYPE":"U","NORAD_CAT_ID":47606,"ELEMENT_SET_NO":999,"REV_AT_EPOCH":26204,"BSTAR":0.0022470635,"MEAN_MOTION_DOT":0.00114489,"MEAN_MOTION_DDOT":0},{"OBJECT_NAME":"STARLINK-1609","OBJECT_ID":"2021-012B","EPOCH":"2025-11-02T04:46:03.360000","MEAN_MOTION":15.06405205,"ECCENTRICITY":0.00015404,"INCLINATION":53.0547,"RA_OF_ASC_NODE":283.9506,"ARG_OF_PERICENTER":85.5008,"MEAN_ANOMALY":274.6157,"EPHEMERIS_TYPE":0,"CLASSIFICATION_TYPE":"U","NORAD_CAT_ID":47621,"ELEMENT_SET_NO":999,"REV_AT_EPOCH":26077,"BSTAR":0.00023318406,"MEAN_MOTION_DOT":3.194e-5,"MEAN_MOTION_DDOT":0},{"OBJECT_NAME":"STARLINK-1645","OBJECT_ID":"2021-012C","EPOCH":"2025-11-02T12:00:02.000160","MEAN_MOTION":15.38204482,"ECCENTRICITY":0.0003554,"INCLINATION":53.0518,"RA_OF_ASC_NODE":279.4057,"ARG_OF_PERICENTER":80.5555,"MEAN_ANOMALY":331.8742,"EPHEMERIS_TYPE":0,"CLASSIFICATION_TYPE":"U","NORAD_CAT_ID":47622,"ELEMENT_SET_NO":999,"REV_AT_EPOCH":582,"BSTAR":0.0028404,"MEAN_MOTION_DOT":0.00109675,"MEAN_MOTION_DDOT":0},{"OBJECT_NAME":"STARLINK-1655","OBJECT_ID":"2021-012D","EPOCH":"2025-11-02T11:26:22.434720","MEAN_MOTION":15.33890314,"ECCENTRICITY":0.0002387,"INCLINATION":53.0543,"RA_OF_ASC_NODE":214.9419,"ARG_OF_PERICENTER":127.6889,"MEAN_ANOMALY":232.4329,"EPHEMERIS_TYPE":0,"CLASSIFICATION_TYPE":"U","NORAD_CAT_ID":47623,"ELEMENT_SET_NO":999,"REV_AT_EPOCH":26176,"BSTAR":0.0018709,"MEAN_MOTION_DOT":0.00062347,"MEAN_MOTION_DDOT":0}]
