STARLINK-1971           
1 47572U 21009AA  25306.50002315  .01693067  00000+0  53600-1 0  9995
2 47572  53.0561 221.5455 0001115  70.3037 215.1230 15.28978453  5785
STARLINK-1975           
1 47573U 21009AB  25306.45408065  .00109937  00000+0  28747-2 0  9994
2 47573  53.0646 204.6781 0011259  84.2774 275.9512 15.37854453262017
STARLINK-1978           
1 47576U 21009AE  25306.50002315  .00161656  00000+0  24374-2 0  9999
2 47576  53.0488 176.0158 0011746 112.2271 289.6727 15.53667101  5890
STARLINK-1979           
1 47577U 21009AF  25306.50002315  .00109491  00000+0  16012-2 0  9999
2 47577  53.0514 212.1113 0003643 165.1621 340.4577 15.54789912  5881
STARLINK-1986           
1 47582U 21009AL  25306.50002315  .00097453  00000+0  14529-2 0  9990
2 47582  53.0449 200.8362 0001612 131.6355 218.9808 15.54321368  5883
STARLINK-1991           
1 47587U 21009AR  25306.50002315  .00046475  00000+0  21725-2 0  9999
2 47587  53.0540 221.9720 0002064  87.9100 321.0508 15.19351296  5781
STARLINK-1993           
1 47588U 21009AS  25306.50002315  .01600346  00000+0  54117-1 0  9994
2 47588  53.0548 231.6815 0000957  92.5353 149.8996 15.26989366  5728
STARLINK-1994           
1 47589U 21009AT  25306.09636985  .00004620  00000+0  32896-3 0  9999
2 47589  53.0547 234.4099 0001637  83.5036 276.6140 15.06386871261563
STARLINK-1995           
1 47590U 21009AU  25306.15348679  .00002141  00000+0  16260-3 0  9991
2 47590  53.0542 254.1485 0001550  98.6214 261.4951 15.06399106261294
STARLINK-1997           
1 47592U 21009AW  25306.50002315  .00964042  00000+0  29758-1 0  9997
2 47592  53.0577 251.4341 0001232  88.3367  29.6758 15.30519688  5681
STARLINK-2001           
1 47596U 21009BA  25306.18296729  .00002270  00000+0  17123-3 0  9990
2 47596  53.0547 254.0180 0001458  90.3648 269.7508 15.06395804261293
STARLINK-2021           
1 47604U 21009BJ  25306.50002315  .00001733  00000+0  71246-4 0  9992
2 47604  53.0589 221.5707 0001589 102.8384 211.5472 15.29896973  5787
STARLINK-2024           
1 47606U 21009BL  25305.99467497  .00114489  00000+0  22471-2 0  9999
2 47606  53.0485 200.0264 0008348  57.7695 302.4120 15.46445395262048
STARLINK-1609           
1 47621U 21012B   25306.19865000  .00003194  00000+0  23318-3 0  9997
2 47621  53.0547 283.9506 0001540  85.5008 274.6157 15.06405205260777
STARLINK-1645           
1 47622U 21012C   25306.50002315  .00109675  00000+0  28404-2 0  9996
2 47622  53.0518 279.4057 0003554  80.5555 331.8742 15.38204482  5824
STARLINK-1655           
1 47623U 21012D   25306.47664855  .00062347  00000+0  18709-2 0  9997
2 47623  53.0543 214.9419 0002387 127.6889 232.4329 15.33890314261769
